STARLINK-4499           
1 53402U 22097Q   26068.53207007  .00001743  00000+0  12757-3 0  9999
2 53402  53.2177 124.8293 0001551  80.9527 279.1641 15.08838565198493
DISKSAT B               
1 67220U 25305B   26068.81497770  .00012481  00000+0  82401-3 0  9990
2 67220  45.0018 250.2098 0003783 311.4052  48.6498 15.07484556 12311
